NORAD_CAT_ID,OBJECT_NAME,OBJECT_TYPE,EPOCH,MEAN_MOTION,ECCENTRICITY,INCLINATION,RA_OF_ASC_NODE,ARG_OF_PERICENTER,MEAN_ANOMALY,BSTAR,MEAN_MOTION_DOT,MEAN_MOTION_DDOT,TLE_LINE0,TLE_LINE1,TLE_LINE2,SEMIMAJOR_AXIS,PERIOD,APOGEE,PERIGEE,DECAYED
52602.0,STARLINK-4012,PAYLOAD,2024-03-16 22:01:33,15.08842836,0.0001315,53.2149,283.7704,102.3838,257.7302,8.6441e-05,1.088e-05,0.0,0 STARLINK-4012,1 52602U 22052E   24076.91774536  .00001088  00000-0  86441-4 0  9991,2 52602  53.2149 283.7704 0001315 102.3838 257.7302 15.08842836102540,6917.872,95.437,540.646,538.827,0.0
52602.0,STARLINK-4012,PAYLOAD,2024-03-16 23:36:56,15.08843254,0.0001292,53.2148,283.4728,100.8888,259.2249,8.6111e-05,1.083e-05,0.0,0 STARLINK-4012,1 52602U 22052E   24076.98398495  .00001083  00000-0  86111-4 0  9993,2 52602  53.2148 283.4728 0001292 100.8888 259.2249 15.08843254102120,6917.87,95.437,540.629,538.842,0.0
52602.0,STARLINK-4012,PAYLOAD,2024-03-17 20:16:57,15.08839,0.0001322,53.2165,279.6055,98.7265,261.3877,8.9046e-05,1.13e-05,0.0,0 STARLINK-4012,1 52602U 22052E   24077.84510722  .00001130  00000-0  89046-4 0  9991,2 52602  53.2165 279.6055 0001322  98.7265 261.3877 15.08839000102683,6917.883,95.438,540.663,538.834,0.0
52602.0,STARLINK-4012,PAYLOAD,2024-03-18 13:46:11,15.08838919,0.0001331,53.2165,276.3341,98.0035,262.1108,8.6153e-05,1.083e-05,0.0,0 STARLINK-4012,1 52602U 22052E   24078.57374825  .00001083  00000-0  86153-4 0  9997,2 52602  53.2165 276.3341 0001331  98.0035 262.1108 15.08838919102799,6917.884,95.438,540.669,538.828,0.0
52602.0,STARLINK-4012,PAYLOAD,2024-03-19 12:01:35,15.08839899,0.0001283,53.2163,272.1723,94.0594,266.0545,9.7541e-05,1.265e-05,0.0,0 STARLINK-4012,1 52602U 22052E   24079.50111015  .00001265  00000-0  97541-4 0  9996,2 52602  53.2163 272.1723 0001283  94.0594 266.0545 15.08839899102939,6917.881,95.438,540.633,538.858,0.0
52602.0,STARLINK-4012,PAYLOAD,2024-03-19 18:23:08,15.08841905,0.0001317,53.2164,270.9841,98.4252,261.6889,0.00010822,1.435e-05,0.0,0 STARLINK-4012,1 52602U 22052E   24079.76606837  .00001435  00000-0  10822-3 0  9990,2 52602  53.2164 270.9841 0001317  98.4252 261.6889 15.08841905102544,6917.875,95.437,540.651,538.828,0.0
52602.0,STARLINK-4012,PAYLOAD,2024-03-19 23:09:17,15.08845994,0.0001333,53.2162,270.0902,103.0574,257.0567,0.00013891,1.924e-05,0.0,0 STARLINK-4012,1 52602U 22052E   24079.96478465  .00001924  00000-0  13891-3 0  9998,2 52602  53.2162 270.0902 0001333 103.0574 257.0567 15.08845994103005,6917.862,95.437,540.649,538.805,0.0
52602.0,STARLINK-4012,PAYLOAD,2024-03-20 19:49:19,15.08820787,0.0001331,53.2158,266.2229,101.1637,258.9505,0.00024326,3.584e-05,0.0,0 STARLINK-4012,1 52602U 22052E   24080.82592150  .00003584  00000-0  24326-3 0  9992,2 52602  53.2158 266.2229 0001331 101.1637 258.9505 15.08820787102707,6917.939,95.439,540.725,538.883,0.0
52602.0,STARLINK-4012,PAYLOAD,2024-03-21 05:21:37,15.0884695,0.0001337,53.2166,264.4372,107.9999,252.1139,5.6049e-05,6.04e-06,0.0,0 STARLINK-4012,1 52602U 22052E   24081.22335013  .00000604  00000-0  56049-4 0  9998,2 52602  53.2166 264.4372 0001337 107.9999 252.1139 15.08846950102761,6917.859,95.437,540.649,538.799,0.0
52602.0,STARLINK-4012,PAYLOAD,2024-03-21 11:43:10,15.08840166,0.0001264,53.215,263.2527,90.2068,269.9069,8.4056e-05,1.05e-05,0.0,0 STARLINK-4012,1 52602U 22052E   24081.48831074  .00001050  00000-0  84056-4 0  9999,2 52602  53.2150 263.2527 0001264  90.2068 269.9069 15.08840166103237,6917.88,95.438,540.619,538.87,0.0
52602.0,STARLINK-4012,PAYLOAD,2024-03-21 19:40:05,15.08846431,0.0001259,53.2144,261.7665,86.9595,273.1542,0.00018943,2.729e-05,0.0,0 STARLINK-4012,1 52602U 22052E   24081.81950809  .00002729  00000-0  18943-3 0  9999,2 52602  53.2144 261.7665 0001259  86.9595 273.1542 15.08846431103286,6917.861,95.437,540.597,538.855,0.0
52602.0,STARLINK-4012,PAYLOAD,2024-03-22 11:33:56,15.08844633,0.0001202,53.2137,258.7936,88.3826,271.7304,0.00023544,3.462e-05,0.0,0 STARLINK-4012,1 52602U 22052E   24082.48190863  .00003462  00000-0  23544-3 0  9997,2 52602  53.2137 258.7936 0001202  88.3826 271.7304 15.08844633102951,6917.866,95.437,540.563,538.9,0.0
52602.0,STARLINK-4012,PAYLOAD,2024-03-22 17:55:29,15.08840111,0.0001231,53.2148,257.6016,97.0033,263.1099,0.00012528,1.707e-05,0.0,0 STARLINK-4012,1 52602U 22052E   24082.74687098  .00001707  00000-0  12528-3 0  9997,2 52602  53.2148 257.6016 0001231  97.0033 263.1099 15.08840111103425,6917.88,95.438,540.597,538.893,0.0
52602.0,STARLINK-4012,PAYLOAD,2024-03-23 11:24:44,15.08828826,0.0001285,53.2153,254.3313,93.4236,266.6903,0.00019578,2.828e-05,0.0,0 STARLINK-4012,1 52602U 22052E   24083.47551719  .00002828  00000-0  19578-3 0  9995,2 52602  53.2153 254.3313 0001285  93.4236 266.6903 15.08828826103105,6917.915,95.438,540.668,538.891,0.0
52602.0,STARLINK-4012,PAYLOAD,2024-03-23 17:46:17,15.08827499,0.0001218,53.2158,253.1411,96.2969,263.8162,0.00016231,2.295e-05,0.0,0 STARLINK-4012,1 52602U 22052E   24083.74047836  .00002295  00000-0  16231-3 0  9996,2 52602  53.2158 253.1411 0001218  96.2969 263.8162 15.08827499103578,6917.919,95.438,540.626,538.941,0.0
52602.0,STARLINK-4012,PAYLOAD,2024-03-24 11:15:31,15.0883788,0.0001439,53.2165,249.87,95.5417,264.5739,6.8992e-05,8.1e-06,0.0,0 STARLINK-4012,1 52602U 22052E   24084.46911256  .00000810  00000-0  68992-4 0  9995,2 52602  53.2165 249.8700 0001439  95.5417 264.5739 15.08837880103252,6917.887,95.438,540.747,538.756,0.0
52602.0,STARLINK-4012,PAYLOAD,2024-03-24 14:26:17,15.08837928,0.0001444,53.2166,249.2748,96.2054,263.9103,6.6914e-05,7.77e-06,0.0,0 STARLINK-4012,1 52602U 22052E   24084.60159378  .00000777  00000-0  66914-4 0  9994,2 52602  53.2166 249.2748 0001444  96.2054 263.9103 15.08837928103701,6917.887,95.438,540.751,538.753,0.0
52602.0,STARLINK-4012,PAYLOAD,2024-03-24 17:37:03,15.08839945,0.0001409,53.2167,248.6802,86.6683,273.447,8.231e-05,1.022e-05,0.0,0 STARLINK-4012,1 52602U 22052E   24084.73407256  .00001022  00000-0  82310-4 0  9991,2 52602  53.2167 248.6802 0001409  86.6683 273.4470 15.08839945103724,6917.881,95.438,540.72,538.771,0.0
52602.0,STARLINK-4012,PAYLOAD,2024-03-25 17:27:50,15.08839924,0.0001288,53.2163,244.221,88.4036,271.7104,0.00010293,1.351e-05,0.0,0 STARLINK-4012,1 52602U 22052E   24085.72767258  .00001351  00000-0  10293-3 0  9997,2 52602  53.2163 244.2210 0001288  88.4036 271.7104 15.08839924103443,6917.881,95.438,540.637,538.855,0.0
52602.0,STARLINK-4012,PAYLOAD,2024-03-26 09:21:42,15.08833546,0.0001353,53.2174,241.2509,80.9699,279.1446,7.7984e-05,9.53e-06,0.0,0 STARLINK-4012,1 52602U 22052E   24086.39007899  .00000953  00000-0  77984-4 0  9997,2 52602  53.2174 241.2509 0001353  80.9699 279.1446 15.08833546103544,6917.9,95.438,540.701,538.829,0.0
52602.0,STARLINK-4012,PAYLOAD,2024-03-26 14:07:52,15.0882872,0.000124,53.216,240.3495,76.3098,283.8032,-4.6122e-05,-1.022e-05,0.0,0 STARLINK-4012,1 52602U 22052E   24086.58880765 -.00001022  00000-0 -46122-4 0  9999,2 52602  53.2160 240.3495 0001240  76.3098 283.8032 15.08828720104003,6917.915,95.438,540.638,538.922,0.0
52602.0,STARLINK-4012,PAYLOAD,2024-03-26 17:18:39,15.0882603,0.000127,53.2157,239.7554,69.2124,290.9004,-4.6311e-05,-1.025e-05,0.0,0 STARLINK-4012,1 52602U 22052E   24086.72129002 -.00001025  00000-0 -46311-4 0  9998,2 52602  53.2157 239.7554 0001270  69.2124 290.9004 15.08826030103594,6917.923,95.438,540.667,538.91,0.0
52602.0,STARLINK-4012,PAYLOAD,2024-03-27 13:58:40,15.08829534,0.000116,53.2154,235.8889,88.0294,272.0831,6.0754e-05,6.79e-06,0.0,0 STARLINK-4012,1 52602U 22052E   24087.58240830  .00000679  00000-0  60754-4 0  9995,2 52602  53.2154 235.8889 0001160  88.0294 272.0831 15.08829534104158,6917.912,95.438,540.58,538.975,0.0
52602.0,STARLINK-4012,PAYLOAD,2024-03-27 18:44:48,15.08843995,0.0001218,53.2166,234.9999,106.1432,253.9694,0.00017601,2.515e-05,0.0,0 STARLINK-4012,1 52602U 22052E   24087.78111554  .00002515  00000-0  17601-3 0  9990,2 52602  53.2166 234.9999 0001218 106.1432 253.9694 15.08843995103750,6917.868,95.437,540.576,538.891,0.0
52602.0,STARLINK-4012,PAYLOAD,2024-03-28 02:41:42,15.08859999,9.81e-05,53.216,233.5114,63.5801,296.5292,0.00020728,3.014e-05,0.0,0 STARLINK-4012,1 52602U 22052E   24088.11230290  .00003014  00000-0  20728-3 0  9996,2 52602  53.2160 233.5114 0000981  63.5801 296.5292 15.08859999103804,6917.819,95.436,540.363,539.006,0.0
52602.0,STARLINK-4012,PAYLOAD,2024-03-28 18:35:37,15.08826024,0.0001482,53.2167,230.5378,76.7511,283.3647,0.00010178,1.332e-05,0.0,0 STARLINK-4012,1 52602U 22052E   24088.77473442  .00001332  00000-0  10178-3 0  9995,2 52602  53.2167 230.5378 0001482  76.7511 283.3647 15.08826024103903,6917.923,95.438,540.813,538.763,0.0
52602.0,STARLINK-4012,PAYLOAD,2024-03-29 15:15:37,15.08843696,0.0002214,53.2148,226.6764,97.2612,262.8631,6.7923e-05,7.93e-06,0.0,0 STARLINK-4012,1 52602U 22052E   24089.63584864  .00000793  00000-0  67923-4 0  9993,2 52602  53.2148 226.6764 0002214  97.2612 262.8631 15.08843696104462,6917.869,95.437,541.266,538.202,0.0
52602.0,STARLINK-4012,PAYLOAD,2024-03-29 18:26:23,15.08842183,0.0001624,53.215,226.0842,71.3037,288.8131,7.6098e-05,9.23e-06,0.0,0 STARLINK-4012,1 52602U 22052E   24089.76832947  .00000923  00000-0  76098-4 0  9993,2 52602  53.2150 226.0842 0001624  71.3037 288.8131 15.08842183104052,6917.874,95.437,540.862,538.615,0.0
52602.0,STARLINK-4012,PAYLOAD,2024-03-30 02:23:18,15.08856686,0.0001478,53.2165,224.5975,95.7215,264.3946,8.5972e-05,1.081e-05,0.0,0 STARLINK-4012,1 52602U 22052E   24090.09951705  .00001081  00000-0  85972-4 0  9992,2 52602  53.2165 224.5975 0001478  95.7215 264.3946 15.08856686104105,6917.829,95.436,540.717,538.672,0.0
52602.0,STARLINK-4012,PAYLOAD,2024-03-30 13:31:01,15.08830597,0.0001559,53.2161,222.5131,90.7562,269.3608,5.73e-05,6.24e-06,0.0,0 STARLINK-4012,1 52602U 22052E   24090.56321349  .00000624  00000-0  57300-4 0  9995,2 52602  53.2161 222.5131 0001559  90.7562 269.3608 15.08830597104173,6917.909,95.438,540.853,538.696,0.0
